{"type": "FeatureCollection", "features": [{"type": "Feature", "properties": {"name": "AWSR water FOV", "radar_lat": 47.709487, "radar_lon": -122.823652, "max_range_m": 4910}, "geometry": {"type": "Polygon", "coordinates": [[[-122.80189, 47.751131], [-122.806746, 47.752152], [-122.81312, 47.753071], [-122.820253, 47.753581], [-122.827082, 47.753581], [-122.833152, 47.753173], [-122.839374, 47.752356], [-122.845445, 47.751131], [-122.850756, 47.749701], [-122.856371, 47.747761], [-122.86138, 47.745616], [-122.866084, 47.743165], [-122.87094, 47.740102], [-122.875645, 47.736426], [-122.877618, 47.734588], [-122.878073, 47.733873], [-122.879135, 47.733056], [-122.880653, 47.730503], [-122.883688, 47.726622], [-122.884295, 47.726214], [-122.884295, 47.725601], [-122.885358, 47.724478], [-122.886875, 47.721312], [-122.888545, 47.716002], [-122.889152, 47.712122], [-122.889152, 47.706812], [-122.888545, 47.702931], [-122.887179, 47.698438], [-122.885509, 47.694762], [-122.883233, 47.690983], [-122.880653, 47.687613], [-122.875949, 47.682814], [-122.872155, 47.67975], [-122.867753, 47.676789], [-122.863959, 47.674644], [-122.858041, 47.671887], [-122.850605, 47.669232], [-122.845597, 47.667905], [-122.843017, 47.670764], [-122.841954, 47.673317], [-122.83983, 47.677095], [-122.839678, 47.678014], [-122.838009, 47.682405], [-122.835429, 47.687205], [-122.833911, 47.689145], [-122.832849, 47.690064], [-122.831635, 47.690064], [-122.830724, 47.690473], [-122.830117, 47.6918], [-122.827689, 47.694966], [-122.826323, 47.699051], [-122.825564, 47.700582], [-122.824502, 47.701706], [-122.823895, 47.702727], [-122.820708, 47.706301], [-122.817824, 47.708037], [-122.816914, 47.708956], [-122.813272, 47.711407], [-122.811147, 47.713143], [-122.809781, 47.714675], [-122.809022, 47.716308], [-122.808719, 47.719883], [-122.808112, 47.722538], [-122.807808, 47.723048], [-122.807808, 47.732443], [-122.806746, 47.737141], [-122.806746, 47.738366], [-122.806139, 47.739489], [-122.805987, 47.740613], [-122.80538, 47.742144], [-122.80538, 47.743063], [-122.804166, 47.745821], [-122.804166, 47.746433], [-122.803104, 47.747761], [-122.802345, 47.748373], [-122.801738, 47.749497], [-122.80189, 47.751131]]]}}]}